{
  "norad_id": 55338,
  "name": "STARLINK-5658",
  "history": [
    {
      "epoch": "2026-03-28T22:00:01.999584Z",
      "apogee_km": 501.9107297653536,
      "perigee_km": 498.80715239673737,
      "latitude_deg": 26.613821154196668,
      "longitude_deg": 70.708569405586,
      "height_km": 501.06704919234505,
      "semi_major_axis_km": 6878.495941081045,
      "eccentricity": 0.0002256,
      "inclination_deg": 43.0003,
      "raan_deg": 194.7468,
      "arg_perigee_deg": 286.7008,
      "mean_anomaly_deg": 114.1679,
      "mean_motion_rev_day": 15.2181736
    },
    {
      "epoch": "2026-03-29T04:00:01.999584Z",
      "apogee_km": 501.2629199130597,
      "perigee_km": 498.0386130081424,
      "latitude_deg": -18.87911474650136,
      "longitude_deg": -74.62506069378604,
      "height_km": 503.40400573781346,
      "semi_major_axis_km": 6877.7877664606,
      "eccentricity": 0.0002344,
      "inclination_deg": 43.0012,
      "raan_deg": 193.3479,
      "arg_perigee_deg": 253.4012,
      "mean_anomaly_deg": 78.4874,
      "mean_motion_rev_day": 15.22052408
    },
    {
      "epoch": "2026-03-30T04:00:01.999584Z",
      "apogee_km": 498.90445580131745,
      "perigee_km": 496.24768027182836,
      "latitude_deg": 35.68560522529729,
      "longitude_deg": -9.83327867009815,
      "height_km": 500.2103523554734,
      "semi_major_axis_km": 6875.713068036573,
      "eccentricity": 0.0001932,
      "inclination_deg": 43.0001,
      "raan_deg": 187.7487,
      "arg_perigee_deg": 276.782,
      "mean_anomaly_deg": 141.6909,
      "mean_motion_rev_day": 15.22741363
    },
    {
      "epoch": "2026-03-30T06:00:02.000160Z",
      "apogee_km": 498.17820853585545,
      "perigee_km": 496.35457654001766,
      "latitude_deg": 16.252583381995635,
      "longitude_deg": 71.51842791193336,
      "height_km": 496.76380290739587,
      "semi_major_axis_km": 6875.403392537936,
      "eccentricity": 0.00013262,
      "inclination_deg": 43.0006,
      "raan_deg": 187.284,
      "arg_perigee_deg": 270.9476,
      "mean_anomaly_deg": 244.9011,
      "mean_motion_rev_day": 15.22844243
    }
  ]
}